{
  "type": "FeatureCollection",
  "features": [
    {
      "type": "Feature",
      "properties": {
        "norad_id": 36828,
        "name": "BEIDOU-2 IGSO-1 (C06)",
        "group": "beidou",
        "lat": -29.102395495511068,
        "lon": 140.95432777547265,
        "alt_km": 35852.24887934787,
        "timestamp": "2025-12-16T19:34:24.532114+00:00",
        "meta_object_name": "BEIDOU-2 IGSO-1 (C06)",
        "meta_object_id": "2010-036A",
        "meta_epoch": "2025-12-14T21:38:21.623424",
        "meta_mean_motion": 1.00275796,
        "meta_eccentricity": 0.00512569,
        "meta_inclination": 54.2866,
        "meta_ra_of_asc_node": 164.6279,
        "meta_arg_of_pericenter": 215.8888,
        "meta_mean_anomaly": 135.7931,
        "meta_ephemeris_type": 0,
        "meta_classification_type": "U",
        "meta_norad_cat_id": 36828,
        "meta_element_set_no": 999,
        "meta_rev_at_epoch": 5624,
        "meta_bstar": 0,
        "meta_mean_motion_dot": -2.4e-07,
        "meta_mean_motion_ddot": 0,
        "tle_line1": "1 36828U 10036A   25348.90163916 -.00000024  00000+0  00000+0 0  9999",
        "tle_line2": "2 36828  54.2866 164.6279 0051256 215.8888 135.7931  1.00275796 56247"
      },
      "geometry": {
        "type": "Point",
        "coordinates": [
          140.95432777547265,
          -29.102395495511068
        ]
      }
    },
    {
      "type": "Feature",
      "properties": {
        "norad_id": 37210,
        "name": "BEIDOU-2 G4 (C04)",
        "group": "beidou",
        "lat": 3.008675614079664,
        "lon": 179.28102020401326,
        "alt_km": 35779.93233121452,
        "timestamp": "2025-12-16T19:34:24.532138+00:00",
        "meta_object_name": "BEIDOU-2 G4 (C04)",
        "meta_object_id": "2010-057A",
        "meta_epoch": "2025-12-15T22:42:35.160192",
        "meta_mean_motion": 1.00271903,
        "meta_eccentricity": 0.00105925,
        "meta_inclination": 3.1926,
        "meta_ra_of_asc_node": 69.9278,
        "meta_arg_of_pericenter": 192.045,
        "meta_mean_anomaly": 323.5948,
        "meta_ephemeris_type": 0,
        "meta_classification_type": "U",
        "meta_norad_cat_id": 37210,
        "meta_element_set_no": 999,
        "meta_rev_at_epoch": 5545,
        "meta_bstar": 0,
        "meta_mean_motion_dot": -9.1e-07,
        "meta_mean_motion_ddot": 0,
        "tle_line1": "1 37210U 10057A   25349.94624028 -.00000091  00000+0  00000+0 0  9993",
        "tle_line2": "2 37210   3.1926  69.9278 0010592 192.0450 323.5948  1.00271903 55451"
      },
      "geometry": {
        "type": "Point",
        "coordinates": [
          179.28102020401326,
          3.008675614079664
        ]
      }
    },
    {
      "type": "Feature",
      "properties": {
        "norad_id": 37256,
        "name": "BEIDOU-2 IGSO-2 (C07)",
        "group": "beidou",
        "lat": -23.824338389351606,
        "lon": 117.56671887489814,
        "alt_km": 35581.58990516478,
        "timestamp": "2025-12-16T19:34:24.532153+00:00",
        "meta_object_name": "BEIDOU-2 IGSO-2 (C07)",
        "meta_object_id": "2010-068A",
        "meta_epoch": "2025-12-15T17:44:21.809184",
        "meta_mean_motion": 1.00285693,
        "meta_eccentricity": 0.00486119,
        "meta_inclination": 47.8802,
        "meta_ra_of_asc_node": 274.1114,
        "meta_arg_of_pericenter": 216.5623,
        "meta_mean_anomaly": 327.802,
        "meta_ephemeris_type": 0,
        "meta_classification_type": "U",
        "meta_norad_cat_id": 37256,
        "meta_element_set_no": 999,
        "meta_rev_at_epoch": 5495,
        "meta_bstar": 0,
        "meta_mean_motion_dot": -2.2e-06,
        "meta_mean_motion_ddot": 0,
        "tle_line1": "1 37256U 10068A   25349.73914131 -.00000220  00000+0  00000+0 0  9993",
        "tle_line2": "2 37256  47.8802 274.1114 0048611 216.5623 327.8020  1.00285693 54958"
      },
      "geometry": {
        "type": "Point",
        "coordinates": [
          117.56671887489814,
          -23.824338389351606
        ]
      }
    },
    {
      "type": "Feature",
      "properties": {
        "norad_id": 37384,
        "name": "BEIDOU-2 IGSO-3 (C08)",
        "group": "beidou",
        "lat": 61.65894029161408,
        "lon": 120.10549511704083,
        "alt_km": 35814.72248814076,
        "timestamp": "2025-12-16T19:34:24.532166+00:00",
        "meta_object_name": "BEIDOU-2 IGSO-3 (C08)",
        "meta_object_id": "2011-013A",
        "meta_epoch": "2025-12-15T15:08:39.193152",
        "meta_mean_motion": 1.00270237,
        "meta_eccentricity": 0.00354064,
        "meta_inclination": 62.1477,
        "meta_ra_of_asc_node": 41.8879,
        "meta_arg_of_pericenter": 187.6383,
        "meta_mean_anomaly": 189.6615,
        "meta_ephemeris_type": 0,
        "meta_classification_type": "U",
        "meta_norad_cat_id": 37384,
        "meta_element_set_no": 999,
        "meta_rev_at_epoch": 5382,
        "meta_bstar": 0,
        "meta_mean_motion_dot": -1.9e-06,
        "meta_mean_motion_ddot": 0,
        "tle_line1": "1 37384U 11013A   25349.63100918 -.00000190  00000+0  00000+0 0  9991",
        "tle_line2": "2 37384  62.1477  41.8879 0035406 187.6383 189.6615  1.00270237 53821"
      },
      "geometry": {
        "type": "Point",
        "coordinates": [
          120.10549511704083,
          61.65894029161408
        ]
      }
    },
    {
      "type": "Feature",
      "properties": {
        "norad_id": 37763,
        "name": "BEIDOU-2 IGSO-4 (C09)",
        "group": "beidou",
        "lat": -39.80751646750707,
        "lon": 130.86299957668726,
        "alt_km": 35647.45895773695,
        "timestamp": "2025-12-16T19:34:24.532179+00:00",
        "meta_object_name": "BEIDOU-2 IGSO-4 (C09)",
        "meta_object_id": "2011-038A",
        "meta_epoch": "2025-12-15T07:50:06.120672",
        "meta_mean_motion": 1.00281785,
        "meta_eccentricity": 0.01493054,
        "meta_inclination": 54.5835,
        "meta_ra_of_asc_node": 167.3229,
        "meta_arg_of_pericenter": 230.222,
        "meta_mean_anomaly": 258.6911,
        "meta_ephemeris_type": 0,
        "meta_classification_type": "U",
        "meta_norad_cat_id": 37763,
        "meta_element_set_no": 999,
        "meta_rev_at_epoch": 5280,
        "meta_bstar": 0,
        "meta_mean_motion_dot": 6.8e-07,
        "meta_mean_motion_ddot": 0,
        "tle_line1": "1 37763U 11038A   25349.32645973  .00000068  00000+0  00000+0 0  9993",
        "tle_line2": "2 37763  54.5835 167.3229 0149305 230.2220 258.6911  1.00281785 52800"
      },
      "geometry": {
        "type": "Point",
        "coordinates": [
          130.86299957668726,
          -39.80751646750707
        ]
      }
    },
    {
      "type": "Feature",
      "properties": {
        "norad_id": 37948,
        "name": "BEIDOU-2 IGSO-5 (C10)",
        "group": "beidou",
        "lat": -13.446842249710938,
        "lon": 106.18771663237605,
        "alt_km": 35358.93316943099,
        "timestamp": "2025-12-16T19:34:24.532191+00:00",
        "meta_object_name": "BEIDOU-2 IGSO-5 (C10)",
        "meta_object_id": "2011-073A",
        "meta_epoch": "2025-12-12T18:24:47.608416",
        "meta_mean_motion": 1.00291151,
        "meta_eccentricity": 0.01101752,
        "meta_inclination": 48.0199,
        "meta_ra_of_asc_node": 273.857,
        "meta_arg_of_pericenter": 222.308,
        "meta_mean_anomaly": 314.7254,
        "meta_ephemeris_type": 0,
        "meta_classification_type": "U",
        "meta_norad_cat_id": 37948,
        "meta_element_set_no": 999,
        "meta_rev_at_epoch": 5126,
        "meta_bstar": 0,
        "meta_mean_motion_dot": -2.21e-06,
        "meta_mean_motion_ddot": 0,
        "tle_line1": "1 37948U 11073A   25346.76721769 -.00000221  00000+0  00000+0 0  9992",
        "tle_line2": "2 37948  48.0199 273.8570 0110175 222.3080 314.7254  1.00291151 51268"
      },
      "geometry": {
        "type": "Point",
        "coordinates": [
          106.18771663237605,
          -13.446842249710938
        ]
      }
    },
    {
      "type": "Feature",
      "properties": {
        "norad_id": 38091,
        "name": "BEIDOU-2 G5 (C05)",
        "group": "beidou",
        "lat": 0.4323391647191173,
        "lon": 78.20410475124154,
        "alt_km": 35827.07715647219,
        "timestamp": "2025-12-16T19:34:24.532204+00:00",
        "meta_object_name": "BEIDOU-2 G5 (C05)",
        "meta_object_id": "2012-008A",
        "meta_epoch": "2025-12-16T15:20:55.893120",
        "meta_mean_motion": 1.00267602,
        "meta_eccentricity": 0.0013027,
        "meta_inclination": 3.1186,
        "meta_ra_of_asc_node": 70.7002,
        "meta_arg_of_pericenter": 231.2097,
        "meta_mean_anomaly": 72.6715,
        "meta_ephemeris_type": 0,
        "meta_classification_type": "U",
        "meta_norad_cat_id": 38091,
        "meta_element_set_no": 999,
        "meta_rev_at_epoch": 5053,
        "meta_bstar": 0,
        "meta_mean_motion_dot": 7.8e-07,
        "meta_mean_motion_ddot": 0,
        "tle_line1": "1 38091U 12008A   25350.63953580  .00000078  00000+0  00000+0 0  9999",
        "tle_line2": "2 38091   3.1186  70.7002 0013027 231.2097  72.6715  1.00267602 50530"
      },
      "geometry": {
        "type": "Point",
        "coordinates": [
          78.20410475124154,
          0.4323391647191173
        ]
      }
    }
  ]
}